[{"OBJECT_NAME":"STARLINK-5096","OBJECT_ID":"2022-125AU","EPOCH":"2026-03-09T17:20:20.447232","MEAN_MOTION":15.08853201,"ECCENTRICITY":0.00010612,"INCLINATION":53.2175,"RA_OF_ASC_NODE":213.5472,"ARG_OF_PERICENTER":93.4423,"MEAN_ANOMALY":266.669,"EPHEMERIS_TYPE":0,"CLASSIFICATION_TYPE":"U","NORAD_CAT_ID":54006,"ELEMENT_SET_NO":999,"REV_AT_EPOCH":18946,"BSTAR":0.00024999748,"MEAN_MOTION_DOT":3.695e-5,"MEAN_MOTION_DDOT":0},{"OBJECT_NAME":"FENGYUN 1C DEB","OBJECT_ID":"1999-025AMC","EPOCH":"2026-03-09T19:39:36.291456","MEAN_MOTION":15.06799557,"ECCENTRICITY":0.00299661,"INCLINATION":98.9468,"RA_OF_ASC_NODE":22.995,"ARG_OF_PERICENTER":242.9892,"MEAN_ANOMALY":116.8272,"EPHEMERIS_TYPE":0,"CLASSIFICATION_TYPE":"U","NORAD_CAT_ID":30597,"ELEMENT_SET_NO":999,"REV_AT_EPOCH":99841,"BSTAR":0.005730905,"MEAN_MOTION_DOT":0.00087128,"MEAN_MOTION_DDOT":0}]
